{"fetched_at":"2026-03-29T16:36:15Z","count":15609,"tles":[{"name":"STARLINK-30066","line1":"1 56704U 23067S   26087.92256073  .00000108  00000+0  13447-4 0  9998","line2":"2 56704  43.0050 162.2377 0001940 263.9288  96.1342 15.27580043158640","category":"Starlink"}]}